{
  "type": "FeatureCollection",
  "features": [
    {
      "type": "Feature",
      "properties": {
        "norad_id": 65729,
        "name": "DRAGONFLY",
        "group": "stations",
        "lat": 0.9022850308924771,
        "lon": -170.22138114659174,
        "alt_km": 369.2562890623376,
        "timestamp": "2025-12-02T07:10:07.889765+00:00",
        "meta_object_name": "DRAGONFLY",
        "meta_object_id": "1998-067XH",
        "meta_epoch": "2025-12-01T20:27:20.656224",
        "meta_mean_motion": 15.6777805,
        "meta_eccentricity": 0.0006425,
        "meta_inclination": 51.6261,
        "meta_ra_of_asc_node": 191.3365,
        "meta_arg_of_pericenter": 210.8786,
        "meta_mean_anomaly": 149.1833,
        "meta_ephemeris_type": 0,
        "meta_classification_type": "U",
        "meta_norad_cat_id": 65729,
        "meta_element_set_no": 999,
        "meta_rev_at_epoch": 1145,
        "meta_bstar": 0.0010934,
        "meta_mean_motion_dot": 0.00123925,
        "meta_mean_motion_ddot": 0,
        "tle_line1": "1 65729U 98067XH  25335.85232241  .00123925  00000+0  10934-2 0  9994",
        "tle_line2": "2 65729  51.6261 191.3365 0006425 210.8786 149.1833 15.67778050 11455"
      },
      "geometry": {
        "type": "Point",
        "coordinates": [
          -170.22138114659174,
          0.9022850308924771
        ]
      }
    },
    {
      "type": "Feature",
      "properties": {
        "norad_id": 65730,
        "name": "1998-067XJ",
        "group": "stations",
        "lat": 3.8135273408823207,
        "lon": 0.32373271761772016,
        "alt_km": 224.63046955579284,
        "timestamp": "2025-12-02T07:10:07.889776+00:00",
        "meta_object_name": "1998-067XJ",
        "meta_object_id": "1998-067XJ",
        "meta_epoch": "2025-12-01T20:03:18.916704",
        "meta_mean_motion": 16.13832998,
        "meta_eccentricity": 0.0010756,
        "meta_inclination": 51.6109,
        "meta_ra_of_asc_node": 185.8826,
        "meta_arg_of_pericenter": 242.801,
        "meta_mean_anomaly": 117.191,
        "meta_ephemeris_type": 0,
        "meta_classification_type": "U",
        "meta_norad_cat_id": 65730,
        "meta_element_set_no": 999,
        "meta_rev_at_epoch": 1152,
        "meta_bstar": 0.0027371,
        "meta_mean_motion_dot": 0.02710772,
        "meta_mean_motion_ddot": 0.014802,
        "tle_line1": "1 65730U 98067XJ  25335.83563561  .02710772  14802-1  27371-2 0  9990",
        "tle_line2": "2 65730  51.6109 185.8826 0010756 242.8010 117.1910 16.13832998 11528"
      },
      "geometry": {
        "type": "Point",
        "coordinates": [
          0.32373271761772016,
          3.8135273408823207
        ]
      }
    },
    {
      "type": "Feature",
      "properties": {
        "norad_id": 65731,
        "name": "1998-067XK",
        "group": "stations",
        "lat": -34.91928578497079,
        "lon": 43.68683405008859,
        "alt_km": 379.2056273819553,
        "timestamp": "2025-12-02T07:10:07.889786+00:00",
        "meta_object_name": "1998-067XK",
        "meta_object_id": "1998-067XK",
        "meta_epoch": "2025-12-01T19:27:46.296864",
        "meta_mean_motion": 15.6318737,
        "meta_eccentricity": 0.0005928,
        "meta_inclination": 51.6288,
        "meta_ra_of_asc_node": 192.5703,
        "meta_arg_of_pericenter": 183.4373,
        "meta_mean_anomaly": 176.6582,
        "meta_ephemeris_type": 0,
        "meta_classification_type": "U",
        "meta_norad_cat_id": 65731,
        "meta_element_set_no": 999,
        "meta_rev_at_epoch": 1143,
        "meta_bstar": 0.00080447,
        "meta_mean_motion_dot": 0.00075235,
        "meta_mean_motion_ddot": 0,
        "tle_line1": "1 65731U 98067XK  25335.81095251  .00075235  00000+0  80447-3 0  9998",
        "tle_line2": "2 65731  51.6288 192.5703 0005928 183.4373 176.6582 15.63187370 11439"
      },
      "geometry": {
        "type": "Point",
        "coordinates": [
          43.68683405008859,
          -34.91928578497079
        ]
      }
    },
    {
      "type": "Feature",
      "properties": {
        "norad_id": 65732,
        "name": "RSP-03",
        "group": "stations",
        "lat": 49.32770119565533,
        "lon": -57.63768737586372,
        "alt_km": 364.6646010817094,
        "timestamp": "2025-12-02T07:10:07.889797+00:00",
        "meta_object_name": "RSP-03",
        "meta_object_id": "1998-067XL",
        "meta_epoch": "2025-12-01T19:59:56.239584",
        "meta_mean_motion": 15.65356239,
        "meta_eccentricity": 0.0006786,
        "meta_inclination": 51.6276,
        "meta_ra_of_asc_node": 191.9628,
        "meta_arg_of_pericenter": 186.6272,
        "meta_mean_anomaly": 173.4635,
        "meta_ephemeris_type": 0,
        "meta_classification_type": "U",
        "meta_norad_cat_id": 65732,
        "meta_element_set_no": 999,
        "meta_rev_at_epoch": 1145,
        "meta_bstar": 0.00097939,
        "meta_mean_motion_dot": 0.00100299,
        "meta_mean_motion_ddot": 0,
        "tle_line1": "1 65732U 98067XL  25335.83328981  .00100299  00000+0  97939-3 0  9993",
        "tle_line2": "2 65732  51.6276 191.9628 0006786 186.6272 173.4635 15.65356239 11452"
      },
      "geometry": {
        "type": "Point",
        "coordinates": [
          -57.63768737586372,
          49.32770119565533
        ]
      }
    },
    {
      "type": "Feature",
      "properties": {
        "norad_id": 65733,
        "name": "GHS-01",
        "group": "stations",
        "lat": -3.947386611955899,
        "lon": 11.820196121083498,
        "alt_km": 356.41428117297255,
        "timestamp": "2025-12-02T07:10:07.889807+00:00",
        "meta_object_name": "GHS-01",
        "meta_object_id": "1998-067XM",
        "meta_epoch": "2025-12-01T19:41:20.291136",
        "meta_mean_motion": 15.69686593,
        "meta_eccentricity": 0.0007042,
        "meta_inclination": 51.6281,
        "meta_ra_of_asc_node": 191.1284,
        "meta_arg_of_pericenter": 209.8558,
        "meta_mean_anomaly": 150.2038,
        "meta_ephemeris_type": 0,
        "meta_classification_type": "U",
        "meta_norad_cat_id": 65733,
        "meta_element_set_no": 999,
        "meta_rev_at_epoch": 1146,
        "meta_bstar": 0.0012238,
        "meta_mean_motion_dot": 0.00150647,
        "meta_mean_motion_ddot": 0,
        "tle_line1": "1 65733U 98067XM  25335.82037374  .00150647  00000+0  12238-2 0  9996",
        "tle_line2": "2 65733  51.6281 191.1284 0007042 209.8558 150.2038 15.69686593 11464"
      },
      "geometry": {
        "type": "Point",
        "coordinates": [
          11.820196121083498,
          -3.947386611955899
        ]
      }
    },
    {
      "type": "Feature",
      "properties": {
        "norad_id": 65941,
        "name": "YOTSUBA-KULOVER",
        "group": "stations",
        "lat": -23.944507977980255,
        "lon": 32.984006102408074,
        "alt_km": 396.71885857345114,
        "timestamp": "2025-12-02T07:10:07.889818+00:00",
        "meta_object_name": "YOTSUBA-KULOVER",
        "meta_object_id": "1998-067XN",
        "meta_epoch": "2025-12-01T14:52:06.534912",
        "meta_mean_motion": 15.57565098,
        "meta_eccentricity": 0.00022157,
        "meta_inclination": 51.6287,
        "meta_ra_of_asc_node": 195.7889,
        "meta_arg_of_pericenter": 159.9481,
        "meta_mean_anomaly": 200.1599,
        "meta_ephemeris_type": 0,
        "meta_classification_type": "U",
        "meta_norad_cat_id": 65941,
        "meta_element_set_no": 999,
        "meta_rev_at_epoch": 812,
        "meta_bstar": 0.00079143347,
        "meta_mean_motion_dot": 0.00059437,
        "meta_mean_motion_ddot": 0,
        "tle_line1": "1 65941U 98067XN  25335.61952008  .00059437  00000+0  79143-3 0  9998",
        "tle_line2": "2 65941  51.6287 195.7889 0002215 159.9481 200.1599 15.57565098  8128"
      },
      "geometry": {
        "type": "Point",
        "coordinates": [
          32.984006102408074,
          -23.944507977980255
        ]
      }
    },
    {
      "type": "Feature",
      "properties": {
        "norad_id": 65942,
        "name": "BOTAN",
        "group": "stations",
        "lat": 46.75967026730198,
        "lon": -110.65961735764475,
        "alt_km": 381.1796148895837,
        "timestamp": "2025-12-02T07:10:07.889829+00:00",
        "meta_object_name": "BOTAN",
        "meta_object_id": "1998-067XP",
        "meta_epoch": "2025-12-01T00:07:46.260192",
        "meta_mean_motion": 15.5994409,
        "meta_eccentricity": 0.00045874,
        "meta_inclination": 51.6292,
        "meta_ra_of_asc_node": 198.4381,
        "meta_arg_of_pericenter": 161.3348,
        "meta_mean_anomaly": 198.7814,
        "meta_ephemeris_type": 0,
        "meta_classification_type": "U",
        "meta_norad_cat_id": 65942,
        "meta_element_set_no": 999,
        "meta_rev_at_epoch": 803,
        "meta_bstar": 0.0010535817,
        "meta_mean_motion_dot": 0.00087116,
        "meta_mean_motion_ddot": 0,
        "tle_line1": "1 65942U 98067XP  25335.00539653  .00087116  00000+0  10536-2 0  9994",
        "tle_line2": "2 65942  51.6292 198.4381 0004587 161.3348 198.7814 15.59944090  8032"
      },
      "geometry": {
        "type": "Point",
        "coordinates": [
          -110.65961735764475,
          46.75967026730198
        ]
      }
    }
  ]
}